      2.10          N: GNSS NAV DATA                        RINEX VERSION / TYPE
fic2rin                                 08/12/2022 00:17:23 PGM / RUN BY / DATE
                                                            END OF HEADER
6  22  8 11  1 59 44.0  .420458614826D-03  .143245415529D-10  .000000000000D+00
     .340000000000D+02  .644375000000D+02  .395195032888D-08  .226826718296D+01
     .350177288055D-05  .242913467810D-02  .525265932083D-06  .515377796936D+04
     .352784000000D+06  .558793544769D-08  .123337036875D+01  .316649675369D-07
     .987389007481D+00  .381937500000D+03 -.885319371277D+00 -.811926677148D-08
     .178221709364D-09  .100000000000D+01  .222200000000D+04  .000000000000D+00
     .240000000000D+01  .000000000000D+00  .372529029846D-08  .340000000000D+02
     .345600000000D+06  .400000000000D+01
27 22  8 11  4  0  0.0  .219752080739D-03 -.147792889038D-11  .000000000000D+00
     .190000000000D+02  .143406250000D+03  .390766276984D-08 -.953772320354D+00
     .737421214581D-05  .105330626247D-01  .113155692816D-04  .515366858864D+04
     .360000000000D+06  .212341547012D-06  .178741466785D+00  .134110450745D-06
     .971762305275D+00  .169812500000D+03  .689394360477D+00 -.775389440940D-08
    -.219294848796D-09  .100000000000D+01  .222200000000D+04  .000000000000D+00
     .240000000000D+01  .000000000000D+00  .139698386192D-08  .190000000000D+02
     .352800000000D+06  .400000000000D+01
16 22  8 11  4  0  0.0 -.519930385053D-03 -.170530256582D-11  .000000000000D+00
     .750000000000D+02 -.459375000000D+01  .459519140817D-08 -.256930678423D-01
    -.150874257088D-06  .127173040528D-01  .932812690735D-05  .515368887329D+04
     .360000000000D+06  .931322574615D-08 -.776941535762D+00  .949949026108D-07
     .968097679394D+00  .201781250000D+03  .729913119971D+00 -.806355016494D-08
    -.871822029173D-09  .100000000000D+01  .222200000000D+04  .000000000000D+00
     .240000000000D+01  .000000000000D+00 -.102445483208D-07  .750000000000D+02
     .352800000000D+06  .400000000000D+01
10 22  8 11  4  0  0.0 -.523799099028D-03 -.134150468512D-10  .000000000000D+00
     .470000000000D+02 -.159906250000D+03  .408338437506D-08  .109060791067D+01
    -.829994678497D-05  .779077410698D-02  .518932938576D-05  .515369097900D+04
     .360000000000D+06 -.119209289551D-06  .227265175325D+01  .819563865662D-07
     .974691560273D+00  .287500000000D+03 -.250928057244D+01 -.815319675623D-08
    -.391444876679D-09  .100000000000D+01  .222200000000D+04  .000000000000D+00
     .240000000000D+01  .000000000000D+00  .232830643654D-08  .470000000000D+02
     .352800000000D+06  .400000000000D+01
8  22  8 11  4  0  0.0 -.799740664661D-04 -.159161572810D-11  .000000000000D+00
     .920000000000D+02  .140343750000D+03  .407409827397D-08 -.985716707789D+00
     .723265111446D-05  .742390006781D-02  .117793679237D-04  .515358044243D+04
     .360000000000D+06  .121071934700D-06  .157863903940D+00 -.150874257088D-06
     .962985112790D+00  .156718750000D+03  .165996686863D+00 -.775925177541D-08
    -.185364864048D-09  .100000000000D+01  .222200000000D+04  .000000000000D+00
     .240000000000D+01  .000000000000D+00  .512227416039D-08  .920000000000D+02
     .352800000000D+06  .400000000000D+01
9  22  8 11  4  0  0.0 -.309512950480D-03  .420641299570D-11  .000000000000D+00
     .880000000000D+02 -.624062500000D+02  .435446709532D-08 -.500182176035D+00
    -.349245965481D-05  .233226129785D-02  .120382755995D-04  .515378378487D+04
     .360000000000D+06  .186264514923D-08 -.298106803960D+01  .204890966415D-07
     .955207311327D+00  .148062500000D+03  .190702905717D+01 -.778639576321D-08
     .580381318069D-09  .100000000000D+01  .222200000000D+04  .000000000000D+00
     .240000000000D+01  .000000000000D+00  .139698386192D-08  .880000000000D+02
     .352800000000D+06  .400000000000D+01
7  22  8 11  4  0  0.0  .315207988024D-03 -.204636307899D-11  .000000000000D+00
     .570000000000D+02  .223125000000D+02  .524628995761D-08  .244382673855D+01
     .100582838058D-05  .163590369048D-01  .570714473724D-05  .515363414574D+04
     .360000000000D+06 -.428408384323D-07 -.190951908857D+01 -.325962901115D-06
     .950308993464D+00  .265968750000D+03 -.224774213509D+01 -.803104881113D-08
     .477519890620D-09  .100000000000D+01  .222200000000D+04  .000000000000D+00
     .240000000000D+01  .000000000000D+00 -.111758708954D-07  .570000000000D+02
     .352800000000D+06  .400000000000D+01
14 22  8 11  4  0  0.0 -.109672546387D-03  .136424205266D-11  .000000000000D+00
     .260000000000D+02 -.236562500000D+02  .503699552537D-08  .170258895029D+01
    -.109151005745D-05  .219795259181D-02  .888854265213D-05  .515365502548D+04
     .360000000000D+06  .298023223877D-07 -.829518132737D+00  .502914190292D-07
     .951580367290D+00  .203781250000D+03 -.305646099012D+01 -.816391148825D-08
    -.780746806953D-09  .100000000000D+01  .222200000000D+04  .000000000000D+00
     .240000000000D+01  .000000000000D+00 -.791624188423D-08  .538000000000D+03
     .352800000000D+06  .400000000000D+01
11 22  8 11  4  0  0.0 -.109500251710D-04 -.909494701773D-12  .000000000000D+00
     .118000000000D+03  .558437500000D+02  .453554606656D-08 -.108248429146D+01
     .306218862534D-05  .639517791569D-03  .353902578354D-06  .515361901855D+04
     .360000000000D+06 -.242143869400D-07  .128126588534D+01 -.577419996262D-07
     .963292755684D+00  .376781250000D+03  .295223072632D+01 -.841963642594D-08
     .121076471892D-09  .100000000000D+01  .222200000000D+04  .000000000000D+00
     .240000000000D+01  .000000000000D+00 -.838190317154D-08  .374000000000D+03
     .352800000000D+06  .400000000000D+01
31 22  8 11  4  0  0.0 -.189198646694D-03 -.147792889038D-11  .000000000000D+00
     .980000000000D+02  .193750000000D+02  .533343644475D-08  .190450302482D+01
     .112131237984D-05  .105007945094D-01  .571832060814D-05  .515377789116D+04
     .360000000000D+06 -.212341547012D-06 -.189069745960D+01  .178813934326D-06
     .954470800831D+00  .268500000000D+03  .412817252547D+00 -.830891752834D-08
     .358586365133D-09  .100000000000D+01  .222200000000D+04  .000000000000D+00
     .240000000000D+01  .000000000000D+00 -.135041773319D-07  .980000000000D+02
     .352800000000D+06  .400000000000D+01
29 22  8 11  4  0  0.0 -.541734509170D-03 -.329691829393D-11  .000000000000D+00
     .820000000000D+02  .135843750000D+03  .380480134239D-08 -.993901155127D+00
     .702589750290D-05  .226224178914D-02  .991672277451D-05  .515366704750D+04
     .360000000000D+06 -.447034835815D-07  .255783317625D+00  .149011611938D-07
     .980394480154D+00  .199468750000D+03  .240155553779D+01 -.764174688086D-08
    -.600024993449D-10  .100000000000D+01  .222200000000D+04  .000000000000D+00
     .340000000000D+01  .000000000000D+00 -.102445483208D-07  .820000000000D+02
     .352800000000D+06  .400000000000D+01
24 22  8 11  4  0  0.0  .171902589500D-03 -.112549969344D-10  .000000000000D+00
     .760000000000D+02  .297187500000D+02  .564523514670D-08 -.287130560625D+01
     .130385160446D-05  .127676675329D-01  .570155680180D-05  .515366781616D+04
     .360000000000D+06  .707805156708D-07 -.199528176713D+01 -.275671482086D-06
     .933892350605D+00  .255812500000D+03  .827672096894D+00 -.833963309348D-08
     .532879339421D-09  .100000000000D+01  .222200000000D+04  .000000000000D+00
     .240000000000D+01  .000000000000D+00  .279396772385D-08  .760000000000D+02
     .352800000000D+06  .400000000000D+01
26 22  8 11  4  0  0.0  .223069917411D-03  .193267624127D-11  .000000000000D+00
     .550000000000D+02 -.197187500000D+02  .546772775281D-08  .812456884285D+00
    -.832602381706D-06  .705712323543D-02  .788085162640D-05  .515378838158D+04
     .360000000000D+06  .745058059692D-07 -.924580054870D+00  .204890966415D-07
     .936455017350D+00  .211531250000D+03  .383014852209D+00 -.842463663422D-08
    -.846106672311D-09  .100000000000D+01  .222200000000D+04  .000000000000D+00
     .240000000000D+01  .000000000000D+00  .698491930962D-08  .550000000000D+02
     .352800000000D+06  .400000000000D+01
22 22  8 11  4  0  0.0  .307781621814D-03  .659383658785D-11  .000000000000D+00
     .460000000000D+02 -.419062500000D+02  .431017953628D-08 -.113880206004D+01
    -.184774398804D-05  .134381979005D-01  .127870589495D-04  .515373047066D+04
     .360000000000D+06 -.409781932831D-07 -.287834227586D+01  .383704900742D-06
     .962119637288D+00  .135125000000D+03 -.184506703465D+01 -.781532553968D-08
     .711101048784D-09  .100000000000D+01  .222200000000D+04  .000000000000D+00
     .240000000000D+01  .000000000000D+00 -.791624188423D-08  .460000000000D+02
     .352800000000D+06  .400000000000D+01
17 22  8 11  4  0  0.0  .647097360343D-03  .420641299570D-11  .000000000000D+00
     .230000000000D+02  .127250000000D+03  .396266506091D-08 -.951772332864D+00
     .670552253723D-05  .135967507958D-01  .108070671558D-04  .515360089302D+04
     .360000000000D+06 -.191852450371D-06  .242385543737D+00  .949949026108D-07
     .978289671657D+00  .184875000000D+03 -.148576353464D+01 -.792461580634D-08
    -.642883921553D-10  .100000000000D+01  .222200000000D+04  .000000000000D+00
     .240000000000D+01  .000000000000D+00 -.111758708954D-07  .230000000000D+02
     .352800000000D+06  .400000000000D+01
21 22  8 11  4  0  0.0  .160585157573D-03 -.341060513165D-12  .000000000000D+00
     .550000000000D+02  .882500000000D+02  .475484091535D-08 -.903875068082D+00
     .471249222755D-05  .242897826247D-01  .113062560558D-05  .515371425247D+04
     .360000000000D+06 -.398606061935D-06  .114586521725D+01 -.838190317154D-07
     .960436883583D+00  .364812500000D+03 -.911817711153D+00 -.883572518628D-08
     .493234830925D-09  .100000000000D+01  .222200000000D+04  .000000000000D+00
     .240000000000D+01  .000000000000D+00 -.102445483208D-07  .550000000000D+02
     .352800000000D+06  .400000000000D+01
